[{"OBJECT_NAME":"STARLINK-31636","OBJECT_ID":"2024-090T","EPOCH":"2026-03-09T15:13:10.668000","MEAN_MOTION":15.27568577,"ECCENTRICITY":9.207e-5,"INCLINATION":43.0001,"RA_OF_ASC_NODE":183.6374,"ARG_OF_PERICENTER":205.3251,"MEAN_ANOMALY":154.7555,"EPHEMERIS_TYPE":0,"CLASSIFICATION_TYPE":"U","NORAD_CAT_ID":59747,"ELEMENT_SET_NO":999,"REV_AT_EPOCH":10343,"BSTAR":-4.4774752e-5,"MEAN_MOTION_DOT":-1.493e-5,"MEAN_MOTION_DDOT":0},{"OBJECT_NAME":"OBJECT BE","OBJECT_ID":"2025-313BE","EPOCH":"2026-03-09T16:43:59.380320","MEAN_MOTION":15.29801687,"ECCENTRICITY":0.00072083,"INCLINATION":97.3989,"RA_OF_ASC_NODE":145.3568,"ARG_OF_PERICENTER":335.3714,"MEAN_ANOMALY":24.7181,"EPHEMERIS_TYPE":0,"CLASSIFICATION_TYPE":"U","NORAD_CAT_ID":67482,"ELEMENT_SET_NO":999,"REV_AT_EPOCH":797,"BSTAR":0.0026504328,"MEAN_MOTION_DOT":0.00077178,"MEAN_MOTION_DDOT":0}]
